[{"OBJECT_NAME":"STARLINK-2575","OBJECT_ID":"2021-038AV","EPOCH":"2026-03-09T21:29:56.740704","MEAN_MOTION":15.30195358,"ECCENTRICITY":0.00010717,"INCLINATION":53.1595,"RA_OF_ASC_NODE":331.5862,"ARG_OF_PERICENTER":96.5209,"MEAN_ANOMALY":263.5914,"EPHEMERIS_TYPE":0,"CLASSIFICATION_TYPE":"U","NORAD_CAT_ID":48396,"ELEMENT_SET_NO":999,"REV_AT_EPOCH":26869,"BSTAR":1.8330645e-5,"MEAN_MOTION_DOT":1.84e-6,"MEAN_MOTION_DDOT":0},{"OBJECT_NAME":"SL-8 R\/B","OBJECT_ID":"1990-078B","EPOCH":"2026-03-09T21:52:42.731616","MEAN_MOTION":14.89068601,"ECCENTRICITY":0.03622553,"INCLINATION":82.9007,"RA_OF_ASC_NODE":251.1111,"ARG_OF_PERICENTER":13.2503,"MEAN_ANOMALY":347.792,"EPHEMERIS_TYPE":0,"CLASSIFICATION_TYPE":"U","NORAD_CAT_ID":20775,"ELEMENT_SET_NO":999,"REV_AT_EPOCH":80933,"BSTAR":0.00056464849,"MEAN_MOTION_DOT":0.0001918,"MEAN_MOTION_DDOT":0}]
